[{"OBJECT_NAME":"STARLINK-31004","OBJECT_ID":"2023-191W","EPOCH":"2026-03-09T04:05:03.720480","MEAN_MOTION":15.26740931,"ECCENTRICITY":0.00010168,"INCLINATION":43.0025,"RA_OF_ASC_NODE":106.2086,"ARG_OF_PERICENTER":256.7184,"MEAN_ANOMALY":103.3554,"EPHEMERIS_TYPE":0,"CLASSIFICATION_TYPE":"U","NORAD_CAT_ID":58528,"ELEMENT_SET_NO":999,"REV_AT_EPOCH":12539,"BSTAR":-2.6480248e-5,"MEAN_MOTION_DOT":-9.7e-6,"MEAN_MOTION_DDOT":0},{"OBJECT_NAME":"OBJECT BE","OBJECT_ID":"2025-313BE","EPOCH":"2026-03-09T16:43:59.380320","MEAN_MOTION":15.29801687,"ECCENTRICITY":0.00072083,"INCLINATION":97.3989,"RA_OF_ASC_NODE":145.3568,"ARG_OF_PERICENTER":335.3714,"MEAN_ANOMALY":24.7181,"EPHEMERIS_TYPE":0,"CLASSIFICATION_TYPE":"U","NORAD_CAT_ID":67482,"ELEMENT_SET_NO":999,"REV_AT_EPOCH":797,"BSTAR":0.0026504328,"MEAN_MOTION_DOT":0.00077178,"MEAN_MOTION_DDOT":0}]
